OBJECT_NAME,OBJECT_ID,EPOCH,MEAN_MOTION,ECCENTRICITY,INCLINATION,RA_OF_ASC_NODE,ARG_OF_PERICENTER,MEAN_ANOMALY,EPHEMERIS_TYPE,CLASSIFICATION_TYPE,NORAD_CAT_ID,ELEMENT_SET_NO,REV_AT_EPOCH,BSTAR,MEAN_MOTION_DOT,MEAN_MOTION_DDOT
PERSEUS-M1,2014-033AF,2026-06-14T19:52:50.844864,14.95625064,.00104839,97.9643,109.9216,310.4650,49.5656,0,U,40039,999,65028,.10678055E-3,.1126E-4,0
POLYITAN-1,2014-033AJ,2026-06-15T00:41:55.220640,15.33192699,.000849,98.0936,192.0858,147.5892,212.5872,0,U,40042,999,65326,.55495E-3,.17749E-3,0
TIGRISAT,2014-033AK,2026-06-14T23:02:14.402688,14.85155456,.0050657,97.7826,316.0224,82.3480,278.3484,0,U,40043,999,64529,.24495E-3,.209E-4,0
AEROCUBE 6A,2014-033AM,2026-06-14T08:26:40.386912,14.98083113,.00391415,97.7231,332.3304,27.6491,332.6801,0,U,40045,999,64619,.49752878E-3,.5921E-4,0
AEROCUBE 6B,2014-033AN,2026-06-14T22:58:47.886816,14.99551783,.0038519,97.7234,332.7149,17.0223,343.2282,0,U,40046,999,64642,.39795E-3,.4906E-4,0
CANX-4,2014-034C,2026-06-15T03:00:32.675616,14.81261362,.0013308,98.3125,41.3628,23.4565,336.7251,0,U,40055,999,64422,.11162E-3,.814E-5,0
CANX-5,2014-034D,2026-06-15T02:58:19.375104,14.81278591,.0013317,98.3127,41.4046,23.6241,336.5579,0,U,40056,999,63503,.11275E-3,.823E-5,0
UKUBE-1,2014-037F,2026-06-14T23:40:40.884384,15.13524870,.0002558,98.4228,169.0272,134.2881,225.8558,0,U,40074,999,64822,.42274E-3,.7498E-4,0
BRITE-PL2 (HEWELIUSZ),2014-049B,2026-06-15T02:19:34.364928,14.94586836,.0015219,97.9096,278.0808,114.6799,245.6008,0,U,40119,999,64113,.13099E-3,.136E-4,0
AEROCUBE 5C,2015-058B,2026-06-14T16:33:23.768352,14.91443796,.01306463,64.7679,270.3589,64.2448,297.2080,0,U,40965,999,36528,.20099217E-3,.2193E-4,0
AEROCUBE 7,2015-058C,2026-06-14T23:03:30.464064,14.95713718,.0120395,64.7629,251.7895,62.5769,298.7530,0,U,40966,999,36562,.25E-3,.3047E-4,0
FOX-1A (AO-85),2015-058D,2026-06-15T01:43:42.235104,14.90961275,.0130328,64.7762,285.5569,57.4109,303.9507,0,U,40967,999,11325,.20683E-3,.223E-4,0
SINOD-D 1,2015-058E,2026-06-14T14:30:47.774304,14.95891927,.01188804,64.7761,266.9995,54.1051,307.1029,0,U,40968,999,11627,.25973809E-3,.3177E-4,0
SNAP-3 ALICE,2015-058G,2026-06-15T04:28:12.421632,15.59661457,.0028678,64.7499,110.8455,14.1737,346.0206,0,U,40970,999,11657,.11731E-2,.96966E-3,0
LMRST-SAT,2015-058H,2026-06-14T18:12:06.849504,14.90580564,.01319476,64.7767,282.8645,59.5717,301.8355,0,U,40971,999,11319,.19481277E-3,.2076E-4,0
SNAP-3 EDDIE,2015-058J,2026-06-15T04:16:14.524032,15.60917891,.0028069,64.7430,101.6137,18.4611,341.7546,0,U,40972,999,11871,.11967E-2,.103837E-2,0
PROPCUBE 3,2015-058K,2026-06-15T00:01:03.968832,14.94247503,.0123935,64.7689,259.3669,60.7705,300.5735,0,U,40973,999,11447,.22255E-3,.2604E-4,0
BISONSAT,2015-058L,2026-06-15T04:28:16.929120,15.16150090,.0078851,64.7577,180.1139,48.0969,312.6844,0,U,40974,999,11531,.43382E-3,.8899E-4,0
SNAP-3 JIMI,2015-058M,2026-06-14T12:38:03.333408,15.02278476,.0106009,64.7643,228.1910,56.4556,304.6631,0,U,40975,999,11382,.29166E-3,.4173E-4,0
PROPCUBE 1 (FLORA),2015-058N,2026-06-15T02:44:12.565248,14.89214211,.0130647,64.7756,301.6610,61.7296,299.6928,0,U,40976,999,11595,.20959E-3,.2156E-4,0
SINOD-D 3,2015-058P,2026-06-15T00:46:11.059680,14.94004945,.0119149,64.7737,282.5484,58.9833,302.2917,0,U,40977,999,11443,.2583E-3,.2997E-4,0
HORYU-4,2016-012D,2026-06-14T11:54:51.309216,15.93820636,.00047162,30.9847,98.7619,253.7574,106.2569,0,U,41340,999,57038,.10359447E-2,.399139E-2,.5627425E-4
RAVAN,2016-067B,2026-06-15T04:14:54.845088,15.54510959,.0004742,97.9888,55.5171,37.3046,322.8534,0,U,41849,999,52738,.62699E-3,.41353E-3,0
CELTEE 1,2016-067C,2026-06-15T03:58:54.706080,15.19664859,.0000805,98.0674,32.5953,122.9897,237.1413,0,U,41850,999,52557,.21077E-3,.4418E-4,0
OPTICUBE 04,2016-067D,2026-06-15T03:46:06.388032,15.09650711,.0016823,98.0696,18.3349,121.9027,238.3840,0,U,41851,999,52486,.11006E-3,.1705E-4,0
AEROCUBE 8D,2016-067E,2026-06-15T04:28:19.240320,15.24373380,.0004583,98.0684,36.2057,128.1768,231.9881,0,U,41852,999,52576,.25987E-3,.6285E-4,0
AEROCUBE 8C,2016-067F,2026-06-15T03:30:15.843744,15.24621420,.0006686,98.0556,33.3928,74.6785,285.5189,0,U,41853,999,52575,.24155E-3,.5881E-4,0
CORVUS BC2,2017-042X,2026-06-14T09:42:53.341056,15.06278341,.00141862,97.4051,326.8627,119.3255,240.9392,0,U,42846,999,48664,.27160184E-3,.3937E-4,0
CORVUS BC1,2017-042Y,2026-06-14T23:56:25.581120,15.06453506,.0013226,97.4090,328.2449,95.9669,264.3067,0,U,42847,999,48676,.25441E-3,.3701E-4,0
MAKERSAT 0,2017-073D,2026-06-15T03:43:31.291392,15.32039776,.0105183,97.4630,48.6587,280.3452,78.5946,0,U,43016,999,46615,.39907E-3,.14625E-3,0
