PERSEUS-M1              
1 40039U 14033AF  26165.82836626  .00001126  00000+0  10678-3 0  9992
2 40039  97.9643 109.9216 0010483 310.4650  49.5656 14.95625064650287
POLYITAN-1              
1 40042U 14033AJ  26166.02911135  .00017749  00000+0  55495-3 0  9992
2 40042  98.0936 192.0858 0008490 147.5892 212.5872 15.33192699653264
TIGRISAT                
1 40043U 14033AK  26165.95988892  .00002090  00000+0  24495-3 0  9997
2 40043  97.7826 316.0224 0050657  82.3480 278.3484 14.85155456645294
AEROCUBE 6A             
1 40045U 14033AM  26165.35185633  .00005921  00000+0  49753-3 0  9995
2 40045  97.7231 332.3304 0039141  27.6491 332.6801 14.98083113646196
AEROCUBE 6B             
1 40046U 14033AN  26165.95749869  .00004906  00000+0  39795-3 0  9996
2 40046  97.7234 332.7149 0038519  17.0223 343.2282 14.99551783646426
CANX-4                  
1 40055U 14034C   26166.12537819  .00000814  00000+0  11162-3 0  9999
2 40055  98.3125  41.3628 0013308  23.4565 336.7251 14.81261362644227
CANX-5                  
1 40056U 14034D   26166.12383536  .00000823  00000+0  11275-3 0  9990
2 40056  98.3127  41.4046 0013317  23.6241 336.5579 14.81278591635030
UKUBE-1                 
1 40074U 14037F   26165.98658431  .00007498  00000+0  42274-3 0  9993
2 40074  98.4228 169.0272 0002558 134.2881 225.8558 15.13524870648227
BRITE-PL2 (HEWELIUSZ)   
1 40119U 14049B   26166.09692552  .00001360  00000+0  13099-3 0  9996
2 40119  97.9096 278.0808 0015219 114.6799 245.6008 14.94586836641139
AEROCUBE 5C             
1 40965U 15058B   26165.68985843  .00002193  00000+0  20099-3 0  9991
2 40965  64.7679 270.3589 0130646  64.2448 297.2080 14.91443796365287
AEROCUBE 7              
1 40966U 15058C   26165.96076926  .00003047  00000+0  25000-3 0  9992
2 40966  64.7629 251.7895 0120395  62.5769 298.7530 14.95713718365625
FOX-1A (AO-85)          
1 40967U 15058D   26166.07201661  .00002230  00000+0  20683-3 0  9997
2 40967  64.7762 285.5569 0130328  57.4109 303.9507 14.90961275113256
SINOD-D 1               
1 40968U 15058E   26165.60471961  .00003177  00000+0  25974-3 0  9997
2 40968  64.7761 266.9995 0118880  54.1051 307.1029 14.95891927116272
SNAP-3 ALICE            
1 40970U 15058G   26166.18625488  .00096966  00000+0  11731-2 0  9992
2 40970  64.7499 110.8455 0028678  14.1737 346.0206 15.59661457116579
LMRST-SAT               
1 40971U 15058H   26165.75841261  .00002076  00000+0  19481-3 0  9994
2 40971  64.7767 282.8645 0131947  59.5717 301.8355 14.90580564113196
SNAP-3 EDDIE            
1 40972U 15058J   26166.17794588  .00103837  00000+0  11967-2 0  9998
2 40972  64.7430 101.6137 0028069  18.4611 341.7546 15.60917891118718
PROPCUBE 3              
1 40973U 15058K   26166.00074038  .00002604  00000+0  22255-3 0  9995
2 40973  64.7689 259.3669 0123935  60.7705 300.5735 14.94247503114472
BISONSAT                
1 40974U 15058L   26166.18630705  .00008899  00000+0  43382-3 0  9990
2 40974  64.7577 180.1139 0078851  48.0969 312.6844 15.16150090115317
SNAP-3 JIMI             
1 40975U 15058M   26165.52642747  .00004173  00000+0  29166-3 0  9992
2 40975  64.7643 228.1910 0106009  56.4556 304.6631 15.02278476113827
PROPCUBE 1 (FLORA)      
1 40976U 15058N   26166.11403432  .00002156  00000+0  20959-3 0  9995
2 40976  64.7756 301.6610 0130647  61.7296 299.6928 14.89214211115951
SINOD-D 3               
1 40977U 15058P   26166.03207245  .00002997  00000+0  25830-3 0  9997
2 40977  64.7737 282.5484 0119149  58.9833 302.2917 14.94004945114434
HORYU-4                 
1 41340U 16012D   26165.49642719  .00399139  56274-4  10359-2 0  9996
2 41340  30.9847  98.7619 0004716 253.7574 106.2569 15.93820636570381
RAVAN                   
1 41849U 16067B   26166.17702367  .00041353  00000+0  62699-3 0  9990
2 41849  97.9888  55.5171 0004742  37.3046 322.8534 15.54510959527387
CELTEE 1                
1 41850U 16067C   26166.16591095  .00004418  00000+0  21077-3 0  9991
2 41850  98.0674  32.5953 0000805 122.9897 237.1413 15.19664859525571
OPTICUBE 04             
1 41851U 16067D   26166.15701838  .00001705  00000+0  11006-3 0  9996
2 41851  98.0696  18.3349 0016823 121.9027 238.3840 15.09650711524867
AEROCUBE 8D             
1 41852U 16067E   26166.18633380  .00006285  00000+0  25987-3 0  9997
2 41852  98.0684  36.2057 0004583 128.1768 231.9881 15.24373380525766
AEROCUBE 8C             
1 41853U 16067F   26166.14601671  .00005881  00000+0  24155-3 0  9999
2 41853  98.0556  33.3928 0006686  74.6785 285.5189 15.24621420525756
CORVUS BC2              
1 42846U 17042X   26165.40478404  .00003937  00000+0  27160-3 0  9999
2 42846  97.4051 326.8627 0014186 119.3255 240.9392 15.06278341486646
CORVUS BC1              
1 42847U 17042Y   26165.99751830  .00003701  00000+0  25441-3 0  9990
2 42847  97.4090 328.2449 0013226  95.9669 264.3067 15.06453506486760
MAKERSAT 0              
1 43016U 17073D   26166.15522328  .00014625  00000+0  39907-3 0  9999
2 43016  97.4630  48.6587 0105183 280.3452  78.5946 15.32039776466159
